OBJECT_NAME,OBJECT_ID,EPOCH,MEAN_MOTION,ECCENTRICITY,INCLINATION,RA_OF_ASC_NODE,ARG_OF_PERICENTER,MEAN_ANOMALY,EPHEMERIS_TYPE,CLASSIFICATION_TYPE,NORAD_CAT_ID,ELEMENT_SET_NO,REV_AT_EPOCH,BSTAR,MEAN_MOTION_DOT,MEAN_MOTION_DDOT
STARLINK-35945,2025-286A,2026-05-16T03:33:08.904672,15.30208122,.0001321,53.1610,45.2024,86.7682,273.3470,0,U,66925,999,2574,.40497365E-3,.11657E-3,0
STARLINK-35942,2025-286B,2026-05-16T04:38:19.583808,15.30216660,.00012384,53.1608,44.7780,89.3100,270.8043,0,U,66926,999,2575,.50221992E-3,.14552E-3,0
STARLINK-35943,2025-286C,2026-05-16T01:00:21.568320,15.34404051,.000107,53.1605,45.2544,89.4708,270.6417,0,U,66927,999,2573,.49031223E-3,.16228E-3,0
STARLINK-35944,2025-286D,2026-05-16T05:28:10.041600,15.31016574,.00018017,53.1591,44.9942,85.4723,274.6484,0,U,66928,999,2575,.14489864E-1,.46857E-2,0
STARLINK-36169,2025-286E,2026-05-16T06:00:02.000160,15.34370980,.00008286,53.1592,44.3309,86.2483,320.7960,0,U,66929,999,582,.1328125E-2,.44723E-3,0
STARLINK-36206,2025-286F,2026-05-16T00:33:01.762848,15.33562420,.00017635,53.1605,45.8437,94.1927,265.9277,0,U,66930,999,2571,.46479054E-3,.1495E-3,0
STARLINK-36130,2025-286G,2026-05-16T06:00:02.000160,15.34383766,.00010634,53.1604,44.4928,84.7530,240.8886,0,U,66931,999,587,.16051119E-2,.54219E-3,0
STARLINK-36177,2025-286H,2026-05-16T03:07:29.223840,15.34408455,.00013558,53.1616,45.0978,78.2372,281.8782,0,U,66932,999,2574,.99546029E-3,.33416E-3,0
STARLINK-36157,2025-286J,2026-05-16T06:00:02.000160,15.33532471,.0001511,53.1610,44.6940,78.1399,143.4325,0,U,66933,999,587,.13429636E-2,.44031E-3,0
STARLINK-36153,2025-286K,2026-05-16T02:55:09.038496,15.30211146,.00009039,53.1604,45.0417,63.5952,296.5142,0,U,66934,999,2574,.33495412E-3,.9578E-4,0
STARLINK-36127,2025-286L,2026-05-15T03:16:18.851520,15.34405192,.0001637,53.1604,49.5610,66.1907,293.9267,0,U,66935,999,2559,.24327188E-3,.7853E-4,0
STARLINK-36160,2025-286M,2026-05-16T02:55:20.963424,15.34424475,.0000872,53.1608,45.0425,248.5371,111.5539,0,U,66936,999,2573,.59312405E-3,.19732E-3,0
STARLINK-36165,2025-286N,2026-05-16T01:42:46.764576,15.34403457,.0001478,53.1615,45.4390,72.2614,287.8550,0,U,66937,999,2573,.40912641E-3,.13473E-3,0
STARLINK-36155,2025-286P,2026-05-16T06:00:02.000160,15.34371972,.00016829,53.1605,44.5100,81.1169,232.9071,0,U,66938,999,582,.12470851E-2,.41957E-3,0
STARLINK-36154,2025-286Q,2026-05-16T01:18:33.944256,15.34393212,.00005071,53.1602,45.3364,98.2707,261.8353,0,U,66939,999,2573,.69903281E-3,.2331E-3,0
STARLINK-36121,2025-286R,2026-05-15T03:38:02.397696,15.30199174,.00013075,53.1602,49.6513,68.5924,291.5216,0,U,66940,999,2559,.30382962E-3,.865E-4,0
STARLINK-36088,2025-286S,2026-05-16T00:51:15.966144,15.34409116,.00010479,53.1603,45.2142,132.7796,227.3295,0,U,66941,999,2573,.49218856E-3,.16294E-3,0
STARLINK-36100,2025-286T,2026-05-16T01:25:39.669888,15.30212772,.00013465,53.1602,45.3603,92.0432,268.0723,0,U,66942,999,2566,.32870667E-3,.9392E-4,0
STARLINK-36109,2025-286U,2026-05-16T07:23:38.393664,15.30219713,.00013754,53.1595,44.0670,101.0486,259.0669,0,U,66943,999,2570,.65262056E-3,.19031E-3,0
STARLINK-36112,2025-286V,2026-05-16T01:03:23.723712,15.34418212,.00017653,53.1601,45.2723,64.1043,296.0142,0,U,66944,999,2573,.73577069E-3,.24579E-3,0
STARLINK-36110,2025-286W,2026-05-16T00:18:04.204224,15.34410161,.00012926,53.1620,45.7772,112.6513,247.4627,0,U,66945,999,2572,.6288155E-3,.20935E-3,0
STARLINK-36115,2025-286X,2026-05-16T04:47:20.127264,15.34419055,.00012893,53.1620,44.8151,73.1669,286.9475,0,U,66946,999,2575,.75507228E-3,.25236E-3,0
STARLINK-36089,2025-286Y,2026-05-16T05:08:32.178048,15.34200190,.00011435,53.1619,44.9011,11.4731,348.6298,0,U,66947,999,2575,.84766306E-2,.295692E-2,0
STARLINK-36116,2025-286Z,2026-05-16T00:23:30.289056,15.30222951,.00018936,53.1615,45.7909,165.0334,195.0723,0,U,66948,999,2571,.58082081E-3,.16894E-3,0
STARLINK-36096,2025-286AA,2026-05-16T07:12:30.491424,15.34410315,.0001058,53.1603,44.0173,34.8847,325.2225,0,U,66949,999,2577,.60417039E-3,.20098E-3,0
STARLINK-36111,2025-286AB,2026-05-16T00:54:18.039456,15.34408448,.0001314,53.1607,45.2206,71.8822,288.2324,0,U,66950,999,2573,.48246163E-3,.15964E-3,0
STARLINK-35999,2025-286AC,2026-05-16T06:00:02.000160,15.34384166,.00009273,53.1611,44.6440,76.9699,167.2690,0,U,66951,999,582,.18880978E-2,.63929E-3,0
STARLINK-36122,2025-286AD,2026-05-16T06:05:58.735392,15.34426187,.00009697,53.1609,44.4411,95.5820,264.5293,0,U,66952,999,2576,.76563114E-3,.25602E-3,0
HULIANWANG DIGUI-114,2025-287A,2026-05-16T04:26:17.099232,13.24410379,.00014614,86.4905,293.1860,102.7246,257.4052,0,U,66953,999,2110,.10139421E-4,.19E-6,0
HULIANWANG DIGUI-115,2025-287B,2026-05-16T04:14:59.173728,13.24427601,.00013198,86.4922,293.2086,106.2061,253.9218,0,U,66954,999,2110,.2628914E-4,.26E-6,0
