STARLINK-35945          
1 66925U 25286A   26136.14801973  .00011657  00000+0  40497-3 0  9998
2 66925  53.1610  45.2024 0001321  86.7682 273.3470 15.30208122 25745
STARLINK-35942          
1 66926U 25286B   26136.19328222  .00014552  00000+0  50222-3 0  9999
2 66926  53.1608  44.7780 0001238  89.3100 270.8043 15.30216660 25752
STARLINK-35943          
1 66927U 25286C   26136.04191630  .00016228  00000+0  49031-3 0  9993
2 66927  53.1605  45.2544 0001070  89.4708 270.6417 15.34404051 25731
STARLINK-35944          
1 66928U 25286D   26136.22789400  .00468570  00000+0  14490-1 0  9992
2 66928  53.1591  44.9942 0001801  85.4723 274.6484 15.31016574 25755
STARLINK-36169          
1 66929U 25286E   26136.25002315  .00044723  00000+0  13281-2 0  9997
2 66929  53.1592  44.3309 0000828  86.2483 320.7960 15.34370980  5823
STARLINK-36206          
1 66930U 25286F   26136.02293707  .00014950  00000+0  46479-3 0  9996
2 66930  53.1605  45.8437 0001763  94.1927 265.9277 15.33562420 25710
STARLINK-36130          
1 66931U 25286G   26136.25002315  .00054219  00000+0  16051-2 0  9999
2 66931  53.1604  44.4928 0001063  84.7530 240.8886 15.34383766  5876
STARLINK-36177          
1 66932U 25286H   26136.13019935  .00033416  00000+0  99546-3 0  9990
2 66932  53.1616  45.0978 0001355  78.2372 281.8782 15.34408455 25749
STARLINK-36157          
1 66933U 25286J   26136.25002315  .00044031  00000+0  13430-2 0  9990
2 66933  53.1610  44.6940 0001511  78.1399 143.4325 15.33532471  5873
STARLINK-36153          
1 66934U 25286K   26136.12163239  .00009578  00000+0  33495-3 0  9991
2 66934  53.1604  45.0417 0000903  63.5952 296.5142 15.30211146 25743
STARLINK-36127          
1 66935U 25286L   26135.13632930  .00007853  00000+0  24327-3 0  9999
2 66935  53.1604  49.5610 0001637  66.1907 293.9267 15.34405192 25594
STARLINK-36160          
1 66936U 25286M   26136.12177041  .00019732  00000+0  59312-3 0  9998
2 66936  53.1608  45.0425 0000872 248.5371 111.5539 15.34424475 25733
STARLINK-36165          
1 66937U 25286N   26136.07137459  .00013473  00000+0  40913-3 0  9995
2 66937  53.1615  45.4390 0001478  72.2614 287.8550 15.34403457 25739
STARLINK-36155          
1 66938U 25286P   26136.25002315  .00041957  00000+0  12471-2 0  9993
2 66938  53.1605  44.5100 0001682  81.1169 232.9071 15.34371972  5822
STARLINK-36154          
1 66939U 25286Q   26136.05455954  .00023310  00000+0  69903-3 0  9999
2 66939  53.1602  45.3364 0000507  98.2707 261.8353 15.34393212 25730
STARLINK-36121          
1 66940U 25286R   26135.15141664  .00008650  00000+0  30383-3 0  9991
2 66940  53.1602  49.6513 0001307  68.5924 291.5216 15.30199174 25594
STARLINK-36088          
1 66941U 25286S   26136.03560146  .00016294  00000+0  49219-3 0  9991
2 66941  53.1603  45.2142 0001047 132.7796 227.3295 15.34409116 25732
STARLINK-36100          
1 66942U 25286T   26136.05948692  .00009392  00000+0  32871-3 0  9997
2 66942  53.1602  45.3603 0001346  92.0432 268.0723 15.30212772 25668
STARLINK-36109          
1 66943U 25286U   26136.30808326  .00019031  00000+0  65262-3 0  9996
2 66943  53.1595  44.0670 0001375 101.0486 259.0669 15.30219713 25708
STARLINK-36112          
1 66944U 25286V   26136.04402458  .00024579  00000+0  73577-3 0  9995
2 66944  53.1601  45.2723 0001765  64.1043 296.0142 15.34418212 25739
STARLINK-36110          
1 66945U 25286W   26136.01254866  .00020935  00000+0  62882-3 0  9990
2 66945  53.1620  45.7772 0001292 112.6513 247.4627 15.34410161 25728
STARLINK-36115          
1 66946U 25286X   26136.19953851  .00025236  00000+0  75507-3 0  9997
2 66946  53.1620  44.8151 0001289  73.1669 286.9475 15.34419055 25752
STARLINK-36089          
1 66947U 25286Y   26136.21426132  .00295692  00000+0  84766-2 0  9999
2 66947  53.1619  44.9011 0001143  11.4731 348.6298 15.34200190 25758
STARLINK-36116          
1 66948U 25286Z   26136.01632279  .00016894  00000+0  58082-3 0  9997
2 66948  53.1615  45.7909 0001893 165.0334 195.0723 15.30222951 25715
STARLINK-36096          
1 66949U 25286AA  26136.30035291  .00020098  00000+0  60417-3 0  9997
2 66949  53.1603  44.0173 0001058  34.8847 325.2225 15.34410315 25770
STARLINK-36111          
1 66950U 25286AB  26136.03770879  .00015964  00000+0  48246-3 0  9999
2 66950  53.1607  45.2206 0001314  71.8822 288.2324 15.34408448 25733
STARLINK-35999          
1 66951U 25286AC  26136.25002315  .00063929  00000+0  18881-2 0  9992
2 66951  53.1611  44.6440 0000927  76.9699 167.2690 15.34384166  5829
STARLINK-36122          
1 66952U 25286AD  26136.25415203  .00025602  00000+0  76563-3 0  9995
2 66952  53.1609  44.4411 0000969  95.5820 264.5293 15.34426187 25767
HULIANWANG DIGUI-114    
1 66953U 25287A   26136.18492013  .00000019  00000+0  10139-4 0  9996
2 66953  86.4905 293.1860 0001461 102.7246 257.4052 13.24410379 21109
HULIANWANG DIGUI-115    
1 66954U 25287B   26136.17707377  .00000026  00000+0  26289-4 0  9999
2 66954  86.4922 293.2086 0001319 106.2061 253.9218 13.24427601 21107
